SL-14 R/B               
1 20511U 90018B   26157.21004448  .00000429  00000+0  50699-4 0  9998
2 20511  82.5201 140.3677 0016775 155.6622 204.5388 14.82209102935691
HST                     
1 20580U 90037B   26157.32027908  .00006872  00000+0  21780-3 0  9999
2 20580  28.4714 154.8380 0001885  34.6923 325.3796 15.30632786786907
SL-16 R/B               
1 20625U 90046B   26157.62723566  .00000257  00000+0  15697-3 0  9996
2 20625  70.9979 111.1256 0014141 177.7915 182.3272 14.15020420860977
COSMOS 2084             
1 20663U 90055A   26157.37190060  .00002460  00000+0  18125-3 0  9994
2 20663  62.7909  33.0039 0005571 259.1304 100.9169 15.06072304949671
SL-6 R/B(2)             
1 20666U 90055D   26157.67719435  .00002099  00000+0  16353-3 0  9992
2 20666  62.7841 311.1397 0038977   3.6864 356.4514 15.03968302951578
SL-8 R/B                
1 20775U 90078B   26157.53258888  .00019142  00000+0  53935-3 0  9997
2 20775  82.9017 171.2678 0352993  74.3044 289.6817 14.91925991822536
SL-8 R/B                
1 21088U 91006B   26157.62626434  .00000054  00000+0  39051-4 0  9999
2 21088  82.9418 103.8898 0023195 142.8174  30.0577 13.77505131776316
OKEAN-3                 
1 21397U 91039A   26157.50284317  .00002587  00000+0  17869-3 0  9990
2 21397  82.5167 250.7419 0014688  34.5757 325.6422 15.05281148878393
COSMOS 2151             
1 21422U 91042A   26157.78952013  .00001490  00000+0  11624-3 0  9993
2 21422  82.4962 357.7163 0013685 115.2038 245.0607 15.00408970876558
SL-14 R/B               
1 21423U 91042B   26157.68693910  .00000436  00000+0  52093-4 0  9996
2 21423  82.4921 136.7425 0015796 312.5513  47.4366 14.81895807866254
ERS-1                   
1 21574U 91050A   26157.80817770  .00000249  00000+0  94270-4 0  9993
2 21574  98.7800 178.2525 0030819 298.9835  60.8264 14.39510492828550
ARIANE 40 R/B           
1 21610U 91050F   26157.57826014  .00000324  00000+0  10943-3 0  9997
2 21610  98.1880 206.4078 0003769 144.8082 215.3358 14.42950936831816
INTERCOSMOS 25          
1 21819U 91086A   26157.54743627  .00000773  00000+0  15383-3 0  9993
2 21819  82.6057 256.2481 1484428 285.3665  58.8577 12.12183565507450
SL-8 R/B                
1 21876U 92008B   26157.59224992  .00000055  00000+0  41523-4 0  9994
2 21876  82.9269 201.6648 0033313 245.2491 227.0193 13.75974070721646
SL-8 R/B                
1 21938U 92020B   26157.60249632  .00000072  00000+0  58173-4 0  9995
2 21938  82.9303  87.7189 0030291  51.2399 123.1741 13.75547874713353
USA 81                  
1 21949U 92023A   26157.51697703  .00000200  00000+0  66646-4 0  9993
2 21949  85.0077  80.1652 0002731  94.5024 265.6480 14.32395314107502
COSMOS 2219             
1 22219U 92076A   26157.79217610 -.00000080  00000+0 -17357-4 0  9990
2 22219  71.0578 191.8031 0016121  61.1295 299.1443 14.14095586730975
SL-16 R/B               
1 22220U 92076B   26157.85374984 -.00000194  00000+0 -72693-4 0  9997
2 22220  71.0008   0.5502 0014409 312.2124  58.5731 14.16872419734467
COSMOS 2221             
1 22236U 92080A   26157.84203779  .00001478  00000+0  12771-3 0  9995
2 22236  82.5036 193.6760 0012641 250.4312 109.5545 14.96507462794120
SL-16 R/B               
1 22285U 92093B   26157.78337102 -.00000066  00000+0 -94343-5 0  9995
2 22285  71.0202 177.2320 0004526 202.6785 157.4138 14.15464997725768
COSMOS 2228             
1 22286U 92094A   26157.79793703  .00002606  00000+0  22047-3 0  9991
2 22286  82.5170 151.9943 0017933   7.9747 352.1757 14.97549230789394
SL-16 R/B               
1 22566U 93016B   26157.62097889  .00000008  00000+0  28809-4 0  9998
2 22566  71.0080  28.4009 0010901 198.9571 161.1148 14.15308578714751
COSMOS 2242             
1 22626U 93024A   26157.81950955  .00001726  00000+0  14792-3 0  9990
2 22626  82.5180 181.4619 0016378  11.7198 348.4402 14.96872747793724
SL-16 R/B               
1 22803U 93059B   26157.76169306  .00000113  00000+0  79483-4 0  9999
2 22803  70.9883 183.2895 0014963  72.1841 288.0914 14.17243789692155
ARIANE 40 R/B           
1 22830U 93061H   26157.59150116  .00000230  00000+0  10002-3 0  9993
2 22830  98.4821 224.6684 0011139  27.4389 332.7381 14.32903514706832
COSMOS 2278             
1 23087U 94023A   26157.77994010  .00000386  00000+0  22639-3 0  9997
2 23087  71.0540 348.7010 0010627 254.9650 105.0297 14.14391700657405
SL-16 R/B               
1 23088U 94023B   26157.57425645  .00000119  00000+0  85930-4 0  9997
2 23088  70.9996 244.2192 0003441 198.2174 161.8825 14.15018775658662
SL-16 R/B               
1 23343U 94074B   26157.82069492  .00000466  00000+0  68872-4 0  9990
2 23343  97.6995 184.9733 0005207 297.0070 236.1991 14.79493712700427
SL-16 R/B               
1 23405U 94077B   26157.73314537 -.00000297  00000+0 -12734-3 0  9994
2 23405  70.9807 165.1562 0002592 333.8707  26.2285 14.15574109628831
ARIANE 40+ R/B          
1 23561U 95021B   26157.64240740  .00000275  00000+0  10138-3 0  9991
2 23561  98.4412 227.8693 0005806 227.9484 255.2585 14.39827571632043
SL-16 R/B               
1 23705U 95058B   26157.81510433 -.00000153  00000+0 -54011-4 0  9995
2 23705  71.0216 353.1362 0013344 334.4552  25.5910 14.15505363580468
